start=new Date('2022-07-04T00:00:00.000Z').valueOf();
sats=[{"RCS_SIZE":"LARGE","PERIOD":"95.592","MEAN_MOTION_DDOT":"0.0000000000000","DECAY_DATE":null,"OBJECT_TYPE":"PAYLOAD","SITE":"AFETR","PERIAPSIS":"546.239","LAUNCH_DATE":"2020-08-18","REF_FRAME":"TEME","FILE":"3507292","EPHEMERIS_TYPE":"0","OBJECT_NAME":"STARLINK-1633","OBJECT_ID":"2020-057BG","CLASSIFICATION_TYPE":"U","TLE_LINE2":"2 46171  53.0538 214.1138 0001431  74.3441 285.7706 15.06394606104894","RA_OF_ASC_NODE":"214.1138","REV_AT_EPOCH":"10489","ELEMENT_SET_NO":"999","ECCENTRICITY":"0.00014310","BSTAR":"0.00009226400000","TIME_SYSTEM":"UTC","COUNTRY_CODE":"US","ARG_OF_PERICENTER":"74.3441","MEAN_ANOMALY":"285.7706","TLE_LINE1":"1 46171U 20057BG  22184.78771147  .00001093  00000-0  92264-4 0  9992","GP_ID":"207353817","NORAD_CAT_ID":"46171","CENTER_NAME":"EARTH","MEAN_MOTION_DOT":"0.00001093","EPOCH":"2022-07-03T18:54:18.271008","MEAN_MOTION":"15.06394606","APOAPSIS":"548.221","INCLINATION":"53.0538","SEMIMAJOR_AXIS":"6925.365","MEAN_ELEMENT_THEORY":"SGP4"},{"TLE_LINE2":"2 46172  53.0523 214.0491 0001603  64.6205 295.4950 15.06400397104895","REV_AT_EPOCH":"10489","RA_OF_ASC_NODE":"214.0491","ELEMENT_SET_NO":"999","BSTAR":"0.00008564800000","ECCENTRICITY":"0.00016030","TIME_SYSTEM":"UTC","REF_FRAME":"TEME","FILE":"3507292","OBJECT_NAME":"STARLINK-1635","EPHEMERIS_TYPE":"0","OBJECT_ID":"2020-057BH","CLASSIFICATION_TYPE":"U","PERIAPSIS":"546.102","LAUNCH_DATE":"2020-08-18","MEAN_MOTION_DDOT":"0.0000000000000","RCS_SIZE":"LARGE","PERIOD":"95.592","DECAY_DATE":null,"OBJECT_TYPE":"PAYLOAD","SITE":"AFETR","EPOCH":"2022-07-03T19:15:33.331968","MEAN_MOTION":"15.06400397","APOAPSIS":"548.322","INCLINATION":"53.0523","SEMIMAJOR_AXIS":"6925.347","MEAN_ELEMENT_THEORY":"SGP4","NORAD_CAT_ID":"46172","CENTER_NAME":"EARTH","MEAN_MOTION_DOT":"0.00000994","TLE_LINE1":"1 46172U 20057BH  22184.80246912  .00000994  00000-0  85648-4 0  9990","GP_ID":"207354067","COUNTRY_CODE":"US","ARG_OF_PERICENTER":"64.6205","MEAN_ANOMALY":"295.4950"},{"OBJECT_ID":"2020-057BJ","OBJECT_NAME":"STARLINK-1640","EPHEMERIS_TYPE":"0","CLASSIFICATION_TYPE":"U","REF_FRAME":"TEME","FILE":"3507292","TIME_SYSTEM":"UTC","TLE_LINE2":"2 46173  53.0530 233.8548 0001795  48.9970 311.1174 15.06402579103361","RA_OF_ASC_NODE":"233.8548","ELEMENT_SET_NO":"999","REV_AT_EPOCH":"10336","ECCENTRICITY":"0.00017950","BSTAR":"0.00012648000000","OBJECT_TYPE":"PAYLOAD","SITE":"AFETR","PERIOD":"95.592","RCS_SIZE":"LARGE","MEAN_MOTION_DDOT":"0.0000000000000","DECAY_DATE":null,"LAUNCH_DATE":"2020-08-18","PERIAPSIS":"545.963","MEAN_MOTION_DOT":"0.00001603","NORAD_CAT_ID":"46173","CENTER_NAME":"EARTH","SEMIMAJOR_AXIS":"6925.341","MEAN_ELEMENT_THEORY":"SGP4","EPOCH":"2022-07-03T20:21:52.212672","MEAN_MOTION":"15.06402579","APOAPSIS":"548.449","INCLINATION":"53.0530","MEAN_ANOMALY":"311.1174","COUNTRY_CODE":"US","ARG_OF_PERICENTER":"48.9970","GP_ID":"207354816","TLE_LINE1":"1 46173U 20057BJ  22184.84852098  .00001603  00000-0  12648-3 0  9990"},{"ECCENTRICITY":"0.00017280","BSTAR":"0.00001787300000","TLE_LINE2":"2 46174  53.0530 233.8204 0001728  48.9682 311.1456 15.06408067103368","REV_AT_EPOCH":"10336","RA_OF_ASC_NODE":"233.8204","ELEMENT_SET_NO":"999","TIME_SYSTEM":"UTC","FILE":"3507292","REF_FRAME":"TEME","CLASSIFICATION_TYPE":"U","OBJECT_NAME":"STARLINK-1641","EPHEMERIS_TYPE":"0","OBJECT_ID":"2020-057BK","PERIAPSIS":"545.992","LAUNCH_DATE":"2020-08-18","DECAY_DATE":null,"RCS_SIZE":"LARGE","PERIOD":"95.592","MEAN_MOTION_DDOT":"0.0000000000000","SITE":"AFETR","OBJECT_TYPE":"PAYLOAD","INCLINATION":"53.0530","APOAPSIS":"548.386","MEAN_MOTION":"15.06408067","EPOCH":"2022-07-03T20:32:29.240736","MEAN_ELEMENT_THEORY":"SGP4","SEMIMAJOR_AXIS":"6925.324","CENTER_NAME":"EARTH","NORAD_CAT_ID":"46174","MEAN_MOTION_DOT":"-0.00000015","GP_ID":"207354554","TLE_LINE1":"1 46174U 20057BK  22184.85589399 -.00000015  00000-0  17873-4 0  9996","ARG_OF_PERICENTER":"48.9682","COUNTRY_CODE":"US","MEAN_ANOMALY":"311.1456"},{"MEAN_MOTION_DOT":"0.00000963","NORAD_CAT_ID":"46325","CENTER_NAME":"EARTH","SEMIMAJOR_AXIS":"6925.344","MEAN_ELEMENT_THEORY":"SGP4","EPOCH":"2022-07-03T14:26:54.721536","MEAN_MOTION":"15.06401597","APOAPSIS":"548.287","INCLINATION":"53.0550","MEAN_ANOMALY":"305.0272","COUNTRY_CODE":"US","ARG_OF_PERICENTER":"55.0863","GP_ID":"207353579","TLE_LINE1":"1 46325U 20062A   22184.60202224  .00000963  00000-0  83564-4 0  9993","OBJECT_ID":"2020-062A","OBJECT_NAME":"STARLINK-1734","EPHEMERIS_TYPE":"0","CLASSIFICATION_TYPE":"U","REF_FRAME":"TEME","FILE":"3507292","TIME_SYSTEM":"UTC","REV_AT_EPOCH":"10281","TLE_LINE2":"2 46325  53.0550 249.9649 0001557  55.0863 305.0272 15.06401597102817","ELEMENT_SET_NO":"999","RA_OF_ASC_NODE":"249.9649","BSTAR":"0.00008356400000","ECCENTRICITY":"0.00015570","OBJECT_TYPE":"PAYLOAD","SITE":"AFETR","RCS_SIZE":"LARGE","PERIOD":"95.592","MEAN_MOTION_DDOT":"0.0000000000000","DECAY_DATE":null,"LAUNCH_DATE":"2020-09-03","PERIAPSIS":"546.130"},{"TLE_LINE1":"1 46326U 20062B   22184.79879177  .00000552  00000-0  55913-4 0  9992","GP_ID":"207354328","ARG_OF_PERICENTER":"55.4486","COUNTRY_CODE":"US","MEAN_ANOMALY":"304.6660","INCLINATION":"53.0570","APOAPSIS":"548.319","MEAN_MOTION":"15.06414644","EPOCH":"2022-07-03T19:10:15.608928","MEAN_ELEMENT_THEORY":"SGP4","SEMIMAJOR_AXIS":"6925.304","CENTER_NAME":"EARTH","NORAD_CAT_ID":"46326","MEAN_MOTION_DOT":"0.00000552","PERIAPSIS":"546.018","LAUNCH_DATE":"2020-09-03","DECAY_DATE":null,"PERIOD":"95.591","RCS_SIZE":"LARGE","MEAN_MOTION_DDOT":"0.0000000000000","SITE":"AFETR","OBJECT_TYPE":"PAYLOAD","ECCENTRICITY":"0.00016610","BSTAR":"0.00005591300000","TLE_LINE2":"2 46326  53.0570 294.3171 0001661  55.4486 304.6660 15.06414644101604","ELEMENT_SET_NO":"999","RA_OF_ASC_NODE":"294.3171","REV_AT_EPOCH":"10160","TIME_SYSTEM":"UTC","FILE":"3507292","REF_FRAME":"TEME","CLASSIFICATION_TYPE":"U","OBJECT_NAME":"STARLINK-1654","OBJECT_ID":"2020-062B","EPHEMERIS_TYPE":"0"},{"EPHEMERIS_TYPE":"0","OBJECT_NAME":"STARLINK-1673","OBJECT_ID":"2020-062C","CLASSIFICATION_TYPE":"U","REF_FRAME":"TEME","FILE":"3507292","TIME_SYSTEM":"UTC","TLE_LINE2":"2 46327  53.0546 294.5684 0001363  91.5386 268.5759 15.06408198101589","REV_AT_EPOCH":"10158","RA_OF_ASC_NODE":"294.5684","ELEMENT_SET_NO":"999","BSTAR":"0.00009155000000","ECCENTRICITY":"0.00013630","OBJECT_TYPE":"PAYLOAD","SITE":"AFETR","PERIOD":"95.592","RCS_SIZE":"LARGE","MEAN_MOTION_DDOT":"0.0000000000000","DECAY_DATE":null,"LAUNCH_DATE":"2020-09-03","PERIAPSIS":"546.245","MEAN_MOTION_DOT":"0.00001083","NORAD_CAT_ID":"46327","CENTER_NAME":"EARTH","SEMIMAJOR_AXIS":"6925.323","MEAN_ELEMENT_THEORY":"SGP4","EPOCH":"2022-07-03T16:30:59.044896","MEAN_MOTION":"15.06408198","APOAPSIS":"548.132","INCLINATION":"53.0546","MEAN_ANOMALY":"268.5759","COUNTRY_CODE":"US","ARG_OF_PERICENTER":"91.5386","GP_ID":"207355065","TLE_LINE1":"1 46327U 20062C   22184.68818339  .00001083  00000-0  91550-4 0  9991"},{"OBJECT_TYPE":"PAYLOAD","SITE":"AFETR","PERIOD":"95.592","RCS_SIZE":"LARGE","MEAN_MOTION_DDOT":"0.0000000000000","DECAY_DATE":null,"LAUNCH_DATE":"2020-09-03","PERIAPSIS":"545.949","CLASSIFICATION_TYPE":"U","OBJECT_NAME":"STARLINK-1686","OBJECT_ID":"2020-062D","EPHEMERIS_TYPE":"0","FILE":"3507292","REF_FRAME":"TEME","TIME_SYSTEM":"UTC","BSTAR":"0.00005319800000","ECCENTRICITY":"0.00017920","REV_AT_EPOCH":"10186","TLE_LINE2":"2 46328  53.0558 274.6676 0001792  51.1556 308.9593 15.06407547101863","RA_OF_ASC_NODE":"274.6676","ELEMENT_SET_NO":"999","MEAN_ANOMALY":"308.9593","COUNTRY_CODE":"US","ARG_OF_PERICENTER":"51.1556","GP_ID":"207353829","TLE_LINE1":"1 46328U 20062D   22184.66790440  .00000511  00000-0  53198-4 0  9993","MEAN_MOTION_DOT":"0.00000511","CENTER_NAME":"EARTH","NORAD_CAT_ID":"46328","SEMIMAJOR_AXIS":"6925.325","MEAN_ELEMENT_THEORY":"SGP4","APOAPSIS":"548.431","INCLINATION":"53.0558","EPOCH":"2022-07-03T16:01:46.940160","MEAN_MOTION":"15.06407547"},{"OBJECT_TYPE":"PAYLOAD","SITE":"AFETR","PERIOD":"95.591","RCS_SIZE":"LARGE","MEAN_MOTION_DDOT":"0.0000000000000","DECAY_DATE":null,"LAUNCH_DATE":"2020-09-03","PERIAPSIS":"546.050","OBJECT_NAME":"STARLINK-1695","OBJECT_ID":"2020-062E","EPHEMERIS_TYPE":"0","CLASSIFICATION_TYPE":"U","REF_FRAME":"TEME","FILE":"3507188","TIME_SYSTEM":"UTC","RA_OF_ASC_NODE":"275.1067","TLE_LINE2":"2 46329  53.0545 275.1067 0001635  58.9151 301.1998 15.06410357101847","ELEMENT_SET_NO":"999","REV_AT_EPOCH":"10184","ECCENTRICITY":"0.00016350","BSTAR":"0.00023218000000","MEAN_ANOMALY":"301.1998","COUNTRY_CODE":"US","ARG_OF_PERICENTER":"58.9151","TLE_LINE1":"1 46329U 20062E   22184.56838902  .00003179  00000-0  23218-3 0  9991","GP_ID":"207326354","MEAN_MOTION_DOT":"0.00003179","NORAD_CAT_ID":"46329","CENTER_NAME":"EARTH","SEMIMAJOR_AXIS":"6925.317","MEAN_ELEMENT_THEORY":"SGP4","EPOCH":"2022-07-03T13:38:28.811328","MEAN_MOTION":"15.06410357","APOAPSIS":"548.314","INCLINATION":"53.0545"},{"SEMIMAJOR_AXIS":"6925.296","MEAN_ELEMENT_THEORY":"SGP4","EPOCH":"2022-07-03T16:33:38.055456","MEAN_MOTION":"15.06417214","APOAPSIS":"548.148","INCLINATION":"53.0544","MEAN_MOTION_DOT":"0.00000548","NORAD_CAT_ID":"46330","CENTER_NAME":"EARTH","TLE_LINE1":"1 46330U 20062F   22184.69002379  .00000548  00000-0  55677-4 0  9990","GP_ID":"207354828","MEAN_ANOMALY":"299.8541","COUNTRY_CODE":"US","ARG_OF_PERICENTER":"60.2590","TIME_SYSTEM":"UTC","TLE_LINE2":"2 46330  53.0544 274.5481 0001426  60.2590 299.8541 15.06417214101871","RA_OF_ASC_NODE":"274.5481","ELEMENT_SET_NO":"999","REV_AT_EPOCH":"10187","ECCENTRICITY":"0.00014260","BSTAR":"0.00005567700000","EPHEMERIS_TYPE":"0","OBJECT_ID":"2020-062F","OBJECT_NAME":"STARLINK-1710","CLASSIFICATION_TYPE":"U","REF_FRAME":"TEME","FILE":"3507292","LAUNCH_DATE":"2020-09-03","PERIAPSIS":"546.173","OBJECT_TYPE":"PAYLOAD","SITE":"AFETR","RCS_SIZE":"LARGE","MEAN_MOTION_DDOT":"0.0000000000000","PERIOD":"95.591","DECAY_DATE":null}];
